ORBCOMM FM24            
1 25478U 98053D   24148.53110018  .00001453  00000+0  54632-3 0  9994
2 25478  45.0087 294.4140 0001311 158.0425 202.0479 14.35772166341977
ORBCOMM FM25            
1 25479U 98053E   24148.49764888  .00001521  00000+0  56985-3 0  9999
2 25479  45.0075 292.8169 0003758 135.7386 224.3763 14.35751315342262
ORBCOMM FM26            
1 25480U 98053F   24148.65002307  .00001280  00000+0  49256-3 0  9995
2 25480  45.0069 286.2890 0006133 149.0147 211.1063 14.35182152342329
ORBCOMM FM27            
1 25481U 98053G   24148.48593175  .00001343  00000+0  50881-3 0  9991
2 25481  45.0061 293.1361 0001658 219.2871 140.7857 14.35737230342199
ORBCOMM FM28            
1 25482U 98053H   24148.32815215  .00001384  00000+0  51853-3 0  9992
2 25482  45.0048 232.2926 0004658 191.1974 168.8771 14.36169715342847
ORBCOMM FM30            
1 25980U 99065A   24148.26226849  .00001304  00000+0  49967-3 0  9996
2 25980  45.0306 113.6614 0006770 250.2587 109.7531 14.35312286278968
ORBCOMM FM31            
1 25981U 99065B   24148.57585620  .00001236  00000+0  47612-3 0  9995
2 25981  45.0226 105.8616 0004499 279.6076  80.4264 14.35308879278566
ORBCOMM FM32            
1 25982U 99065C   24148.63897891  .00001158  00000+0  45824-3 0  9995
2 25982  45.0154 119.4927 0007002 275.0989  84.9059 14.34309064279332
